{
  "norad_id": 52577,
  "name": "STARLINK-3836",
  "history": [
    {
      "epoch": "2026-03-28T14:35:56.040864Z",
      "apogee_km": 540.748730867409,
      "perigee_km": 538.7342446517732,
      "latitude_deg": 4.994372329035584e-06,
      "longitude_deg": 4.179908772206069,
      "height_km": 540.6138656615641,
      "semi_major_axis_km": 6917.878487759591,
      "eccentricity": 0.0001456,
      "inclination_deg": 53.2183,
      "raan_deg": 49.1897,
      "arg_perigee_deg": 88.675,
      "mean_anomaly_deg": 271.4409,
      "mean_motion_rev_day": 15.08840622
    },
    {
      "epoch": "2026-03-29T03:19:00.905088Z",
      "apogee_km": 540.7064938955918,
      "perigee_km": 538.7501215865632,
      "latitude_deg": -1.3920077335711491e-05,
      "longitude_deg": 170.50811659357595,
      "height_km": 540.6256813887611,
      "semi_major_axis_km": 6917.865307741077,
      "eccentricity": 0.0001414,
      "inclination_deg": 53.2179,
      "raan_deg": 46.8105,
      "arg_perigee_deg": 90.0987,
      "mean_anomaly_deg": 270.0167,
      "mean_motion_rev_day": 15.08844934
    },
    {
      "epoch": "2026-03-30T03:09:48.454848Z",
      "apogee_km": 540.716126205396,
      "perigee_km": 538.7791185111346,
      "latitude_deg": 3.498262684673985e-05,
      "longitude_deg": 167.37048687878308,
      "height_km": 540.6363049702985,
      "semi_major_axis_km": 6917.884622358265,
      "eccentricity": 0.00014,
      "inclination_deg": 53.2184,
      "raan_deg": 42.3503,
      "arg_perigee_deg": 89.5818,
      "mean_anomaly_deg": 270.5335,
      "mean_motion_rev_day": 15.08838615
    },
    {
      "epoch": "2026-03-30T03:09:48.455712Z",
      "apogee_km": 540.7164029207806,
      "perigee_km": 538.7788417957499,
      "latitude_deg": 3.130432546577823e-05,
      "longitude_deg": 167.3704805341172,
      "height_km": 540.6363029481711,
      "semi_major_axis_km": 6917.884622358265,
      "eccentricity": 0.00014004,
      "inclination_deg": 53.2184,
      "raan_deg": 42.3503,
      "arg_perigee_deg": 89.5818,
      "mean_anomaly_deg": 270.5335,
      "mean_motion_rev_day": 15.08838615
    },
    {
      "epoch": "2026-03-30T14:17:30.066432Z",
      "apogee_km": 540.6730327226724,
      "perigee_km": 538.7922023310593,
      "latitude_deg": 8.46054517222043e-06,
      "longitude_deg": -2.0923338836523224,
      "height_km": 540.6469403005835,
      "semi_major_axis_km": 6917.869617526865,
      "eccentricity": 0.00013594,
      "inclination_deg": 53.2183,
      "raan_deg": 40.2679,
      "arg_perigee_deg": 91.1284,
      "mean_anomaly_deg": 268.9864,
      "mean_motion_rev_day": 15.08843524
    },
    {
      "epoch": "2026-03-31T20:29:50.296704Z",
      "apogee_km": 540.726809124696,
      "perigee_km": 538.7967153700292,
      "latitude_deg": 1.6405083008286725e-07,
      "longitude_deg": -102.06703189998339,
      "height_km": 540.6650948775348,
      "semi_major_axis_km": 6917.898762247362,
      "eccentricity": 0.0001395,
      "inclination_deg": 53.2187,
      "raan_deg": 34.618,
      "arg_perigee_deg": 90.4476,
      "mean_anomaly_deg": 269.6676,
      "mean_motion_rev_day": 15.08833989
    },
    {
      "epoch": "2026-04-01T02:51:22.863168Z",
      "apogee_km": 540.7220028097372,
      "perigee_km": 538.7985506509149,
      "latitude_deg": -1.724888896445596e-05,
      "longitude_deg": 161.0962051561011,
      "height_km": 540.7100469054245,
      "semi_major_axis_km": 6917.897276730326,
      "eccentricity": 0.00013902,
      "inclination_deg": 53.2187,
      "raan_deg": 33.4281,
      "arg_perigee_deg": 93.2167,
      "mean_anomaly_deg": 266.8984,
      "mean_motion_rev_day": 15.08834475
    },
    {
      "epoch": "2026-04-02T20:11:24.355968Z",
      "apogee_km": 540.7898582964353,
      "perigee_km": 538.7172582851708,
      "latitude_deg": 3.45915196768415e-05,
      "longitude_deg": -108.33559134058156,
      "height_km": 540.7758732574987,
      "semi_major_axis_km": 6917.890558290803,
      "eccentricity": 0.0001498,
      "inclination_deg": 53.22,
      "raan_deg": 25.7,
      "arg_perigee_deg": 97.0125,
      "mean_anomaly_deg": 263.1038,
      "mean_motion_rev_day": 15.08836673
    },
    {
      "epoch": "2026-04-02T20:11:24.356832Z",
      "apogee_km": 540.7899274753399,
      "perigee_km": 538.7171891062653,
      "latitude_deg": 3.3674852785848634e-05,
      "longitude_deg": -108.33559563193427,
      "height_km": 540.7758817030976,
      "semi_major_axis_km": 6917.890558290803,
      "eccentricity": 0.00014981,
      "inclination_deg": 53.22,
      "raan_deg": 25.7,
      "arg_perigee_deg": 97.0125,
      "mean_anomaly_deg": 263.1038,
      "mean_motion_rev_day": 15.08836673
    },
    {
      "epoch": "2026-04-03T20:02:12.752448Z",
      "apogee_km": 540.9927797432229,
      "perigee_km": 538.5811914418455,
      "latitude_deg": -1.0250030220465172e-06,
      "longitude_deg": -111.47482209499907,
      "height_km": 540.8497815916343,
      "semi_major_axis_km": 6917.923985592533,
      "eccentricity": 0.0001743,
      "inclination_deg": 53.2206,
      "raan_deg": 21.2418,
      "arg_perigee_deg": 97.9741,
      "mean_anomaly_deg": 262.1449,
      "mean_motion_rev_day": 15.08825737
    },
    {
      "epoch": "2026-04-04T05:34:31.541664Z",
      "apogee_km": 540.9148167344019,
      "perigee_km": 538.6348113587283,
      "latitude_deg": 3.161221530107488e-05,
      "longitude_deg": 103.26977910197276,
      "height_km": 540.7452883763563,
      "semi_major_axis_km": 6917.911814046565,
      "eccentricity": 0.00016479,
      "inclination_deg": 53.22,
      "raan_deg": 19.4564,
      "arg_perigee_deg": 93.7672,
      "mean_anomaly_deg": 266.3509,
      "mean_motion_rev_day": 15.08829719
    },
    {
      "epoch": "2026-04-05T11:46:50.290176Z",
      "apogee_km": 540.6478387899379,
      "perigee_km": 538.7941295644987,
      "latitude_deg": -2.2252711834781166e-05,
      "longitude_deg": 3.299534835895736,
      "height_km": 540.4931493161274,
      "semi_major_axis_km": 6917.857984177218,
      "eccentricity": 0.00013398,
      "inclination_deg": 53.2188,
      "raan_deg": 13.8048,
      "arg_perigee_deg": 82.3276,
      "mean_anomaly_deg": 277.7868,
      "mean_motion_rev_day": 15.0884733
    },
    {
      "epoch": "2026-04-06T02:05:18.367296Z",
      "apogee_km": 540.6335212574832,
      "perigee_km": 538.7452313698041,
      "latitude_deg": -1.2897713024026333e-05,
      "longitude_deg": 145.41835222915287,
      "height_km": 540.4617427661952,
      "semi_major_axis_km": 6917.826376313643,
      "eccentricity": 0.00013648,
      "inclination_deg": 53.2173,
      "raan_deg": 11.1282,
      "arg_perigee_deg": 82.493,
      "mean_anomaly_deg": 277.6217,
      "mean_motion_rev_day": 15.08857671
    },
    {
      "epoch": "2026-04-07T00:20:42.409536Z",
      "apogee_km": 540.8208832088594,
      "perigee_km": 538.623909421779,
      "latitude_deg": 1.0036605311572142e-05,
      "longitude_deg": 166.49164167120577,
      "height_km": 540.38432665101,
      "semi_major_axis_km": 6917.859396315319,
      "eccentricity": 0.00015879,
      "inclination_deg": 53.2175,
      "raan_deg": 6.9657,
      "arg_perigee_deg": 77.726,
      "mean_anomaly_deg": 282.391,
      "mean_motion_rev_day": 15.08846868
    },
    {
      "epoch": "2026-04-07T21:00:43.245792Z",
      "apogee_km": 540.765179954803,
      "perigee_km": 538.6953540685126,
      "latitude_deg": 1.4167562538710653e-05,
      "longitude_deg": -148.22500156370532,
      "height_km": 540.3398990041461,
      "semi_major_axis_km": 6917.8672670116575,
      "eccentricity": 0.0001496,
      "inclination_deg": 53.2188,
      "raan_deg": 3.1013,
      "arg_perigee_deg": 73.9505,
      "mean_anomaly_deg": 286.1652,
      "mean_motion_rev_day": 15.08844293
    },
    {
      "epoch": "2026-04-08T00:11:29.362272Z",
      "apogee_km": 540.843840295458,
      "perigee_km": 538.5996869125456,
      "latitude_deg": -1.5597163407440323e-05,
      "longitude_deg": 163.3557474449591,
      "height_km": 540.4238849361753,
      "semi_major_axis_km": 6917.858763604002,
      "eccentricity": 0.0001622,
      "inclination_deg": 53.2194,
      "raan_deg": 2.5048,
      "arg_perigee_deg": 80.0712,
      "mean_anomaly_deg": 280.0463,
      "mean_motion_rev_day": 15.08847075
    },
    {
      "epoch": "2026-04-09T09:34:35.347008Z",
      "apogee_km": 540.7316297480784,
      "perigee_km": 538.7455076723027,
      "latitude_deg": -1.2072082053981549e-05,
      "longitude_deg": 14.96463638462974,
      "height_km": 540.4322646967443,
      "semi_major_axis_km": 6917.87556871019,
      "eccentricity": 0.00014355,
      "inclination_deg": 53.2186,
      "raan_deg": 356.2597,
      "arg_perigee_deg": 78.2587,
      "mean_anomaly_deg": 281.8566,
      "mean_motion_rev_day": 15.08841577
    },
    {
      "epoch": "2026-04-10T09:25:22.470816Z",
      "apogee_km": 540.7225840908859,
      "perigee_km": 538.7551401956925,
      "latitude_deg": 7.17701875646188e-05,
      "longitude_deg": 11.828709029447445,
      "height_km": 540.4484331714907,
      "semi_major_axis_km": 6917.875862143289,
      "eccentricity": 0.0001422,
      "inclination_deg": 53.2193,
      "raan_deg": 351.7994,
      "arg_perigee_deg": 79.0844,
      "mean_anomaly_deg": 281.0309,
      "mean_motion_rev_day": 15.08841481
    },
    {
      "epoch": "2026-04-11T20:23:52.245600Z",
      "apogee_km": 540.7501563242186,
      "perigee_km": 538.791004897389,
      "latitude_deg": 4.8003703854716015e-05,
      "longitude_deg": -160.77184265310265,
      "height_km": 540.6586313286763,
      "semi_major_axis_km": 6917.907580610803,
      "eccentricity": 0.0001416,
      "inclination_deg": 53.2191,
      "raan_deg": 345.2593,
      "arg_perigee_deg": 89.5468,
      "mean_anomaly_deg": 270.5687,
      "mean_motion_rev_day": 15.08831104
    }
  ]
}